{
    "links": {
        "self": "http://www.neowsapp.com/rest/v1/neo/3729538?api_key=iIulBulltgU6a56xZRHN4H3l9WmuAYTsLGpBGhQ2"
    },
    "id": "3729538",
    "neo_reference_id": "3729538",
    "name": "(2015 TY143)",
    "designation": "2015 TY143",
    "nasa_jpl_url": "http://ssd.jpl.nasa.gov/sbdb.cgi?sstr=3729538",
    "absolute_magnitude_h": 23.5,
    "estimated_diameter": {
        "kilometers": {
            "estimated_diameter_min": 0.0530340723,
            "estimated_diameter_max": 0.1185877909
        },
        "meters": {
            "estimated_diameter_min": 53.0340723319,
            "estimated_diameter_max": 118.5877908577
        },
        "miles": {
            "estimated_diameter_min": 0.0329538346,
            "estimated_diameter_max": 0.0736870142
        },
        "feet": {
            "estimated_diameter_min": 173.9963058693,
            "estimated_diameter_max": 389.0675677576
        }
    },
    "is_potentially_hazardous_asteroid": false,
    "close_approach_data": [
        {
            "close_approach_date": "2015-10-27",
            "close_approach_date_full": "2015-Oct-27 02:18",
            "epoch_date_close_approach": 1445912280000,
            "relative_velocity": {
                "kilometers_per_second": "3.6671863504",
                "kilometers_per_hour": "13201.8708614882",
                "miles_per_hour": "8203.1291472397"
            },
            "miss_distance": {
                "astronomical": "0.2763078444",
                "lunar": "107.4837514716",
                "kilometers": "41335064.986531428",
                "miles": "25684418.3803245864"
            },
            "orbiting_body": "Earth"
        },
        {
            "close_approach_date": "2018-11-05",
            "close_approach_date_full": "2018-Nov-05 17:38",
            "epoch_date_close_approach": 1541439480000,
            "relative_velocity": {
                "kilometers_per_second": "3.8940506429",
                "kilometers_per_hour": "14018.5823143824",
                "miles_per_hour": "8710.6018830672"
            },
            "miss_distance": {
                "astronomical": "0.2204461303",
                "lunar": "85.7535446867",
                "kilometers": "32978271.542622461",
                "miles": "20491747.7216175218"
            },
            "orbiting_body": "Earth"
        }
    ],
    "orbital_data": {
        "orbit_id": "12",
        "orbit_determination_date": "2017-04-06 08:31:29",
        "first_observation_date": "2015-10-09",
        "last_observation_date": "2015-11-04",
        "data_arc_in_days": 26,
        "observations_used": 34,
        "orbit_uncertainty": "6",
        "minimum_orbit_intersection": ".217815",
        "jupiter_tisserand_invariant": "3.657",
        "epoch_osculation": "2459000.5",
        "eccentricity": ".4212736685680754",
        "semi_major_axis": "2.063478891761895",
        "inclination": "6.343644742221086",
        "ascending_node_longitude": "5.978329846379113",
        "orbital_period": "1082.675907978568",
        "perihelion_distance": "1.194189569016575",
        "perihelion_argument": "43.41280682826451",
        "aphelion_distance": "2.932768214507215",
        "perihelion_time": "2459515.424194957534",
        "mean_anomaly": "188.7828252031431",
        "mean_motion": ".3325094770716246",
        "equinox": "J2000",
        "orbit_class": {
            "orbit_class_type": "AMO",
            "orbit_class_description": "Near-Earth asteroid orbits similar to that of 1221 Amor",
            "orbit_class_range": "1.017 AU < q (perihelion) < 1.3 AU"
        }
    },
    "is_sentry_object": false
}